{
  "norad_id": 68191,
  "name": "STARLINK-37091",
  "history": [
    {
      "epoch": "2026-04-13T06:00:02.000160Z",
      "apogee_km": 382.3071042160773,
      "perigee_km": 380.27346292354287,
      "latitude_deg": -18.884169619131416,
      "longitude_deg": 12.02754208091717,
      "height_km": 387.0652177304897,
      "semi_major_axis_km": 6759.42728356981,
      "eccentricity": 0.00015043,
      "inclination_deg": 53.1601,
      "raan_deg": 108.7154,
      "arg_perigee_deg": 79.632,
      "mean_anomaly_deg": 123.9751,
      "mean_motion_rev_day": 15.62204597
    },
    {
      "epoch": "2026-04-14T20:00:01.999008Z",
      "apogee_km": 401.47423664365397,
      "perigee_km": 399.71041127355875,
      "latitude_deg": 53.09995944406347,
      "longitude_deg": 55.14358813828097,
      "height_km": 406.3067875869318,
      "semi_major_axis_km": 6778.729323958606,
      "eccentricity": 0.0001301,
      "inclination_deg": 53.1589,
      "raan_deg": 101.0372,
      "arg_perigee_deg": 69.2648,
      "mean_anomaly_deg": 25.0065,
      "mean_motion_rev_day": 15.55536918
    },
    {
      "epoch": "2026-04-15T20:00:01.999008Z",
      "apogee_km": 413.4303078932762,
      "perigee_km": 411.7529979160081,
      "latitude_deg": -49.00713245054497,
      "longitude_deg": -106.78140379495828,
      "height_km": 430.25142021145666,
      "semi_major_axis_km": 6790.728652904642,
      "eccentricity": 0.0001235,
      "inclination_deg": 53.1603,
      "raan_deg": 96.2262,
      "arg_perigee_deg": 95.8149,
      "mean_anomaly_deg": 194.0393,
      "mean_motion_rev_day": 15.51415751
    },
    {
      "epoch": "2026-04-16T20:00:01.999008Z",
      "apogee_km": 423.8801904917236,
      "perigee_km": 421.88749138532876,
      "latitude_deg": 48.260482651126246,
      "longitude_deg": 69.83753740948337,
      "height_km": 427.50409560822465,
      "semi_major_axis_km": 6801.020840938526,
      "eccentricity": 0.0001465,
      "inclination_deg": 53.1596,
      "raan_deg": 91.4412,
      "arg_perigee_deg": 74.5669,
      "mean_anomaly_deg": 36.9547,
      "mean_motion_rev_day": 15.47895378
    },
    {
      "epoch": "2026-04-17T22:00:01.999584Z",
      "apogee_km": 437.7932842953551,
      "perigee_km": 435.689940160476,
      "latitude_deg": 18.25451486602272,
      "longitude_deg": -75.53485501575119,
      "height_km": 436.4513953516835,
      "semi_major_axis_km": 6814.878612227915,
      "eccentricity": 0.00015432,
      "inclination_deg": 53.1594,
      "raan_deg": 86.291,
      "arg_perigee_deg": 75.8027,
      "mean_anomaly_deg": 307.2109,
      "mean_motion_rev_day": 15.43176408
    },
    {
      "epoch": "2026-04-18T20:00:01.000224Z",
      "apogee_km": 437.69175735128465,
      "perigee_km": 435.91987221944055,
      "latitude_deg": 51.79614057074106,
      "longitude_deg": 6.194092300572742,
      "height_km": 442.1582861185292,
      "semi_major_axis_km": 6814.942814785362,
      "eccentricity": 0.00013,
      "inclination_deg": 53.1598,
      "raan_deg": 81.948,
      "arg_perigee_deg": 88.7114,
      "mean_anomaly_deg": 349.7661,
      "mean_motion_rev_day": 15.43154601
    },
    {
      "epoch": "2026-04-19T20:00:01.999008Z",
      "apogee_km": 437.84274668054604,
      "perigee_km": 435.8077989458843,
      "latitude_deg": -42.45346959661844,
      "longitude_deg": 152.23659392351846,
      "height_km": 451.8410631239164,
      "semi_major_axis_km": 6814.962272813215,
      "eccentricity": 0.0001493,
      "inclination_deg": 53.1604,
      "raan_deg": 77.2106,
      "arg_perigee_deg": 91.7553,
      "mean_anomaly_deg": 145.3945,
      "mean_motion_rev_day": 15.43147992
    },
    {
      "epoch": "2026-04-20T14:00:03.000384Z",
      "apogee_km": 437.68934101900686,
      "perigee_km": 435.4842326960552,
      "latitude_deg": 53.14442670893796,
      "longitude_deg": 98.6187878683248,
      "height_km": 442.0149021119068,
      "semi_major_axis_km": 6814.723786857531,
      "eccentricity": 0.00016179,
      "inclination_deg": 53.1608,
      "raan_deg": 73.6587,
      "arg_perigee_deg": 84.3935,
      "mean_anomaly_deg": 1.7895,
      "mean_motion_rev_day": 15.43228998
    },
    {
      "epoch": "2026-04-21T00:00:02.000160Z",
      "apogee_km": 437.6993327688351,
      "perigee_km": 435.32333748031124,
      "latitude_deg": -45.302711243539946,
      "longitude_deg": 91.43883471029326,
      "height_km": 452.923325026357,
      "semi_major_axis_km": 6814.648335124573,
      "eccentricity": 0.00017433,
      "inclination_deg": 53.1607,
      "raan_deg": 71.6849,
      "arg_perigee_deg": 88.7855,
      "mean_anomaly_deg": 153.4871,
      "mean_motion_rev_day": 15.43254628
    },
    {
      "epoch": "2026-04-22T13:48:44.845920Z",
      "apogee_km": 437.96615911962454,
      "perigee_km": 435.26206587818524,
      "latitude_deg": 3.351932124354702e-05,
      "longitude_deg": 6.3983351046160415,
      "height_km": 437.4672230112832,
      "semi_major_axis_km": 6814.751112498905,
      "eccentricity": 0.0001984,
      "inclination_deg": 53.1607,
      "raan_deg": 64.2203,
      "arg_perigee_deg": 87.9189,
      "mean_anomaly_deg": 272.2045,
      "mean_motion_rev_day": 15.43219716
    },
    {
      "epoch": "2026-04-24T18:39:48.453696Z",
      "apogee_km": 443.08341390108217,
      "perigee_km": 432.227219898723,
      "latitude_deg": -7.354096186430063e-06,
      "longitude_deg": -78.96924478921376,
      "height_km": 443.12671139775085,
      "semi_major_axis_km": 6815.792316899902,
      "eccentricity": 0.0007964,
      "inclination_deg": 53.1568,
      "raan_deg": 53.7883,
      "arg_perigee_deg": 147.413,
      "mean_anomaly_deg": 212.7369,
      "mean_motion_rev_day": 15.42866108
    },
    {
      "epoch": "2026-04-25T20:00:01.000224Z",
      "apogee_km": 440.53187884709587,
      "perigee_km": 439.16828143106795,
      "latitude_deg": 50.96619836201532,
      "longitude_deg": 8.176811816815613,
      "height_km": 445.22300621539404,
      "semi_major_axis_km": 6817.987080139082,
      "eccentricity": 0.0001,
      "inclination_deg": 53.1601,
      "raan_deg": 48.7955,
      "arg_perigee_deg": 90.9102,
      "mean_anomaly_deg": 13.5036,
      "mean_motion_rev_day": 15.42121177
    },
    {
      "epoch": "2026-04-26T22:00:00.999936Z",
      "apogee_km": 440.22350478486806,
      "perigee_km": 439.287544499085,
      "latitude_deg": 1.694411635653458,
      "longitude_deg": -139.9832018370704,
      "height_km": 440.6502124524256,
      "semi_major_axis_km": 6817.892524641976,
      "eccentricity": 6.864e-05,
      "inclination_deg": 53.1601,
      "raan_deg": 43.6721,
      "arg_perigee_deg": 116.7409,
      "mean_anomaly_deg": 245.4711,
      "mean_motion_rev_day": 15.42153258
    },
    {
      "epoch": "2026-04-27T20:00:03.000384Z",
      "apogee_km": 440.4242956302687,
      "perigee_km": 439.1357093168008,
      "latitude_deg": 40.680027206689964,
      "longitude_deg": -76.67406345388834,
      "height_km": 443.0885254299249,
      "semi_major_axis_km": 6817.917002473534,
      "eccentricity": 9.45e-05,
      "inclination_deg": 53.1597,
      "raan_deg": 39.336,
      "arg_perigee_deg": 103.2905,
      "mean_anomaly_deg": 311.0386,
      "mean_motion_rev_day": 15.42144953
    },
    {
      "epoch": "2026-04-28T20:00:01.000224Z",
      "apogee_km": 440.38840103680013,
      "perigee_km": 439.12436360371794,
      "latitude_deg": -23.109598467517863,
      "longitude_deg": 76.33727462944331,
      "height_km": 446.63328002240655,
      "semi_major_axis_km": 6817.893382320259,
      "eccentricity": 9.27e-05,
      "inclination_deg": 53.1596,
      "raan_deg": 34.6066,
      "arg_perigee_deg": 93.6598,
      "mean_anomaly_deg": 115.445,
      "mean_motion_rev_day": 15.42152967
    },
    {
      "epoch": "2026-04-29T18:25:40.612224Z",
      "apogee_km": 440.1982938132578,
      "perigee_km": 439.07199785476496,
      "latitude_deg": -2.5955362562163233e-05,
      "longitude_deg": -103.95923659148198,
      "height_km": 440.6625423482807,
      "semi_major_axis_km": 6817.772145834011,
      "eccentricity": 8.26e-05,
      "inclination_deg": 53.1611,
      "raan_deg": 30.1842,
      "arg_perigee_deg": 102.7104,
      "mean_anomaly_deg": 257.3994,
      "mean_motion_rev_day": 15.42194102
    },
    {
      "epoch": "2026-04-30T00:38:58.236288Z",
      "apogee_km": 440.35643346531924,
      "perigee_km": 439.12512473841343,
      "latitude_deg": 5.55797493759034e-05,
      "longitude_deg": 161.23758011563004,
      "height_km": 440.49526817935117,
      "semi_major_axis_km": 6817.877779101866,
      "eccentricity": 9.03e-05,
      "inclination_deg": 53.1614,
      "raan_deg": 28.9599,
      "arg_perigee_deg": 76.0018,
      "mean_anomaly_deg": 284.1089,
      "mean_motion_rev_day": 15.42158261
    },
    {
      "epoch": "2026-05-02T02:25:18.300864Z",
      "apogee_km": 440.5560598788361,
      "perigee_km": 439.07111024140977,
      "latitude_deg": -2.4880339721074804e-05,
      "longitude_deg": 122.80594247964324,
      "height_km": 440.1997649326536,
      "semi_major_axis_km": 6817.950585060123,
      "eccentricity": 0.0001089,
      "inclination_deg": 53.161,
      "raan_deg": 19.156,
      "arg_perigee_deg": 45.833,
      "mean_anomaly_deg": 314.2765,
      "mean_motion_rev_day": 15.42133559
    },
    {
      "epoch": "2026-05-03T20:25:00.916320Z",
      "apogee_km": 440.0760990163135,
      "perigee_km": 439.0602609444968,
      "latitude_deg": 8.238651232966497e-06,
      "longitude_deg": -157.12858219729804,
      "height_km": 440.7038489365776,
      "semi_major_axis_km": 6817.705179980405,
      "eccentricity": 7.45e-05,
      "inclination_deg": 53.1578,
      "raan_deg": 10.8737,
      "arg_perigee_deg": 117.2226,
      "mean_anomaly_deg": 242.8856,
      "mean_motion_rev_day": 15.42216824
    }
  ]
}